[{"OBJECT_NAME":"STARLINK-36069","OBJECT_ID":"2025-278R","EPOCH":"2026-03-09T03:45:58.421952","MEAN_MOTION":15.27587272,"ECCENTRICITY":4.225e-5,"INCLINATION":42.9949,"RA_OF_ASC_NODE":117.7185,"ARG_OF_PERICENTER":290.9114,"MEAN_ANOMALY":69.1692,"EPHEMERIS_TYPE":0,"CLASSIFICATION_TYPE":"U","NORAD_CAT_ID":66806,"ELEMENT_SET_NO":999,"REV_AT_EPOCH":1512,"BSTAR":0.0011277484,"MEAN_MOTION_DOT":0.00030908,"MEAN_MOTION_DDOT":0},{"OBJECT_NAME":"CZ-6A DEB","OBJECT_ID":"2022-151TQ","EPOCH":"2026-03-09T06:57:26.684352","MEAN_MOTION":15.22919125,"ECCENTRICITY":0.00409545,"INCLINATION":98.8216,"RA_OF_ASC_NODE":191.4692,"ARG_OF_PERICENTER":160.8215,"MEAN_ANOMALY":199.457,"EPHEMERIS_TYPE":0,"CLASSIFICATION_TYPE":"U","NORAD_CAT_ID":54975,"ELEMENT_SET_NO":999,"REV_AT_EPOCH":17711,"BSTAR":0.0066825196,"MEAN_MOTION_DOT":0.00163663,"MEAN_MOTION_DDOT":0}]
